*******************************************************************************
 Revised: Nov 05, 2015              Styx / (Pluto)                          905

 Newly discovered satellite of Pluto. Fit to all available observations, 
 including New Horizons encounter tracking.
******************************************************************************
 
 
*******************************************************************************
Ephemeris / WWW_USER Mon Jan 23 09:23:19 2017 Pasadena, USA      / Horizons    
*******************************************************************************
Target body name: Styx (905)                      {source: plu055l_merged}
Center body name: Pluto (999)                     {source: plu055l_merged}
Center-site name: BODYCENTRIC
*******************************************************************************
Start time      : A.D. 2016-Nov-01 00:00:00.0000 UT      
Stop  time      : A.D. 2016-Dec-01 00:00:00.0000 UT      
Step-size       : 60 minutes
*******************************************************************************
Target pole/equ : No model available
Target radii    : (unavailable)                                                
Center geodetic : 0.00000000,0.00000000,0.0000000 {E-lon(deg),Lat(deg),Alt(km)}
Center cylindric: 0.00000000,0.00000000,0.0000000 {E-lon(deg),Dxy(km),Dz(km)}
Center pole/equ : IAU_PLUTO                       {East-longitude +}
Center radii    : 1195.0 x 1195.0 x 1195.0 km     {Equator, meridian, pole}    
Target primary  : Pluto
Vis. interferer : CHARON (R_eq= 605.000) km       {source: plu055l_merged}
Rel. light bend : Sun, PLUTO                      {source: plu055l_merged}
Rel. lght bnd GM: 1.3271E+11, 8.6934E+02 km^3/s^2                              
Atmos refraction: NO (AIRLESS)
RA format       : DEG
Time format     : CAL 
EOP file        : eop.170120.p170413                                           
EOP coverage    : DATA-BASED 1962-JAN-20 TO 2017-JAN-20. PREDICTS-> 2017-APR-12
Units conversion: 1 au= 149597870.700 km, c= 299792.458 km/s, 1 day= 86400.0 s 
Table cut-offs 1: Elevation (-90.0deg=NO ),Airmass     n.a.    , Daylight (NO )
Table cut-offs 2: Solar Elongation (  0.0,180.0=NO ),Local Hour Angle( 0.0=NO )
Table format    : Comma Separated Values (spreadsheet)
*******************************************************************************
 Date__(UT)__HR:MN:SS, , ,   ObsEcLon,   ObsEcLat,
**************************************************
$$SOE
 2016-Nov-07 03:00:00, , ,262.7043884,-53.7933576,
 2016-Nov-07 04:00:00, , ,261.9312096,-53.2642780,
 2016-Nov-07 05:00:00, , ,261.1744599,-52.7284779,
 2016-Nov-07 06:00:00, , ,260.4336375,-52.1860971,
 2016-Nov-07 07:00:00, , ,259.7082524,-51.6372709,
 2016-Nov-07 08:00:00, , ,258.9978268,-51.0821306,
 2016-Nov-07 09:00:00, , ,258.3018954,-50.5208040,
 2016-Nov-07 10:00:00, , ,257.6200054,-49.9534157,
 2016-Nov-07 11:00:00, , ,256.9517164,-49.3800871,
 2016-Nov-07 12:00:00, , ,256.2966008,-48.8009372,
 2016-Nov-07 13:00:00, , ,255.6542430,-48.2160823,
 2016-Nov-07 14:00:00, , ,255.0242402,-47.6256367,
 2016-Nov-07 15:00:00, , ,254.4062014,-47.0297128,
 2016-Nov-07 16:00:00, , ,253.7997475,-46.4284214,
 2016-Nov-07 17:00:00, , ,253.2045112,-45.8218716,
 2016-Nov-07 18:00:00, , ,252.6201364,-45.2101715,
 2016-Nov-07 19:00:00, , ,252.0462784,-44.5934279,
 2016-Nov-07 20:00:00, , ,251.4826032,-43.9717468,
 2016-Nov-07 21:00:00, , ,250.9287871,-43.3452335,
 2016-Nov-07 22:00:00, , ,250.3845171,-42.7139926,
 2016-Nov-07 23:00:00, , ,249.8494897,-42.0781282,
 2016-Nov-08 00:00:00, , ,249.3234112,-41.4377439,
 2016-Nov-08 01:00:00, , ,248.8059973,-40.7929433,
 2016-Nov-08 02:00:00, , ,248.2969724,-40.1438295,
 2016-Nov-08 03:00:00, , ,247.7960697,-39.4905059,
 2016-Nov-08 04:00:00, , ,247.3030309,-38.8330754,
 2016-Nov-08 05:00:00, , ,246.8176058,-38.1716413,
 2016-Nov-08 06:00:00, , ,246.3395517,-37.5063067,
 2016-Nov-08 07:00:00, , ,245.8686336,-36.8371750,
 2016-Nov-08 08:00:00, , ,245.4046238,-36.1643495,
 2016-Nov-08 09:00:00, , ,244.9473015,-35.4879341,
 2016-Nov-08 10:00:00, , ,244.4964525,-34.8080323,
 2016-Nov-08 11:00:00, , ,244.0518690,-34.1247482,
 2016-Nov-08 12:00:00, , ,243.6133497,-33.4381858,
 2016-Nov-08 13:00:00, , ,243.1806989,-32.7484496,
 2016-Nov-08 14:00:00, , ,242.7537268,-32.0556438,
 2016-Nov-08 15:00:00, , ,242.3322489,-31.3598729,
 2016-Nov-08 16:00:00, , ,241.9160862,-30.6612417,
 2016-Nov-08 17:00:00, , ,241.5050644,-29.9598545,
 2016-Nov-08 18:00:00, , ,241.0990143,-29.2558161,
 2016-Nov-08 19:00:00, , ,240.6977713,-28.5492308,
 2016-Nov-08 20:00:00, , ,240.3011751,-27.8402030,
 2016-Nov-08 21:00:00, , ,239.9090697,-27.1288367,
 2016-Nov-08 22:00:00, , ,239.5213030,-26.4152358,
 2016-Nov-08 23:00:00, , ,239.1377271,-25.6995034,
 2016-Nov-09 00:00:00, , ,238.7581973,-24.9817426,
 2016-Nov-09 01:00:00, , ,238.3825727,-24.2620554,
 2016-Nov-09 02:00:00, , ,238.0107156,-23.5405433,
 2016-Nov-09 03:00:00, , ,237.6424916,-22.8173070,
 2016-Nov-09 04:00:00, , ,237.2777690,-22.0924461,
 2016-Nov-09 05:00:00, , ,236.9164191,-21.3660590,
 2016-Nov-09 06:00:00, , ,236.5583157,-20.6382428,
 2016-Nov-09 07:00:00, , ,236.2033352,-19.9090934,
 2016-Nov-09 08:00:00, , ,235.8513561,-19.1787046,
 2016-Nov-09 09:00:00, , ,235.5022593,-18.4471689,
 2016-Nov-09 10:00:00, , ,235.1559273,-17.7145763,
 2016-Nov-09 11:00:00, , ,234.8122448,-16.9810149,
 2016-Nov-09 12:00:00, , ,234.4710978,-16.2465703,
 2016-Nov-09 13:00:00, , ,234.1323739,-15.5113255,
 2016-Nov-09 14:00:00, , ,233.7959619,-14.7753605,
 2016-Nov-09 15:00:00, , ,233.4617519,-14.0387523,
 2016-Nov-09 16:00:00, , ,233.1296347,-13.3015746,
 2016-Nov-09 17:00:00, , ,232.7995020,-12.5638976,
 2016-Nov-09 18:00:00, , ,232.4712462,-11.8257877,
 2016-Nov-09 19:00:00, , ,232.1447600,-11.0873074,
 2016-Nov-09 20:00:00, , ,231.8199364,-10.3485151,
 2016-Nov-09 21:00:00, , ,231.4966687, -9.6094646,
 2016-Nov-09 22:00:00, , ,231.1748501, -8.8702055,
 2016-Nov-09 23:00:00, , ,230.8543735, -8.1307828,
 2016-Nov-10 00:00:00, , ,230.5351317, -7.3912367,
 2016-Nov-10 01:00:00, , ,230.2170173, -6.6516032,
 2016-Nov-10 02:00:00, , ,229.8999221, -5.9119130,
 2016-Nov-10 03:00:00, , ,229.5837371, -5.1721917,
 2016-Nov-10 04:00:00, , ,229.2683530, -4.4324611,
 2016-Nov-10 05:00:00, , ,228.9536599, -3.6927387,
 2016-Nov-10 06:00:00, , ,228.6395470, -2.9530382,
 2016-Nov-10 07:00:00, , ,228.3259032, -2.2133697,
 2016-Nov-10 08:00:00, , ,228.0126163, -1.4737399,
 2016-Nov-10 09:00:00, , ,227.6995738, -0.7341523,
 2016-Nov-10 10:00:00, , ,227.3866621,  0.0053914,
 2016-Nov-10 11:00:00, , ,227.0737675,  0.7448919,
 2016-Nov-10 12:00:00, , ,226.7607756,  1.4843505,
 2016-Nov-10 13:00:00, , ,226.4475717,  2.2237696,
 2016-Nov-10 14:00:00, , ,226.1340408,  2.9631512,
 2016-Nov-10 15:00:00, , ,225.8200678,  3.7024963,
 2016-Nov-10 16:00:00, , ,225.5055375,  4.4418050,
 2016-Nov-10 17:00:00, , ,225.1903346,  5.1810749,
 2016-Nov-10 18:00:00, , ,224.8743440,  5.9203015,
 2016-Nov-10 19:00:00, , ,224.5574508,  6.6594769,
 2016-Nov-10 20:00:00, , ,224.2395402,  7.3985899,
 2016-Nov-10 21:00:00, , ,223.9204973,  8.1376253,
 2016-Nov-10 22:00:00, , ,223.6002078,  8.8765638,
 2016-Nov-10 23:00:00, , ,223.2785573,  9.6153817,
 2016-Nov-11 00:00:00, , ,222.9554315, 10.3540506,
 2016-Nov-11 01:00:00, , ,222.6307162, 11.0925374,
 2016-Nov-11 02:00:00, , ,222.3042969, 11.8308041,
 2016-Nov-11 03:00:00, , ,221.9760592, 12.5688081,
 2016-Nov-11 04:00:00, , ,221.6458884, 13.3065018,
 2016-Nov-11 05:00:00, , ,221.3136692, 14.0438330,
 2016-Nov-11 06:00:00, , ,220.9792858, 14.7807449,
 2016-Nov-11 07:00:00, , ,220.6426218, 15.5171763,
 2016-Nov-11 08:00:00, , ,220.3035598, 16.2530616,
 2016-Nov-11 09:00:00, , ,219.9619814, 16.9883313,
 2016-Nov-11 10:00:00, , ,219.6177669, 17.7229121,
 2016-Nov-11 11:00:00, , ,219.2707953, 18.4567267,
 2016-Nov-11 12:00:00, , ,218.9209439, 19.1896947,
 2016-Nov-11 13:00:00, , ,218.5680884, 19.9217324,
 2016-Nov-11 14:00:00, , ,218.2121023, 20.6527532,
 2016-Nov-11 15:00:00, , ,217.8528572, 21.3826676,
 2016-Nov-11 16:00:00, , ,217.4902221, 22.1113836,
 2016-Nov-11 17:00:00, , ,217.1240636, 22.8388069,
 2016-Nov-11 18:00:00, , ,216.7542458, 23.5648409,
 2016-Nov-11 19:00:00, , ,216.3806294, 24.2893871,
 2016-Nov-11 20:00:00, , ,216.0030725, 25.0123452,
 2016-Nov-11 21:00:00, , ,215.6214295, 25.7336133,
 2016-Nov-11 22:00:00, , ,215.2355517, 26.4530878,
 2016-Nov-11 23:00:00, , ,214.8452864, 27.1706639,
 2016-Nov-12 00:00:00, , ,214.4504772, 27.8862355,
 2016-Nov-12 01:00:00, , ,214.0509637, 28.5996954,
 2016-Nov-12 02:00:00, , ,213.6465809, 29.3109354,
 2016-Nov-12 03:00:00, , ,213.2371598, 30.0198464,
 2016-Nov-12 04:00:00, , ,212.8225261, 30.7263186,
 2016-Nov-12 05:00:00, , ,212.4025012, 31.4302413,
 2016-Nov-12 06:00:00, , ,211.9769010, 32.1315033,
 2016-Nov-12 07:00:00, , ,211.5455360, 32.8299928,
 2016-Nov-12 08:00:00, , ,211.1082112, 33.5255976,
 2016-Nov-12 09:00:00, , ,210.6647259, 34.2182049,
 2016-Nov-12 10:00:00, , ,210.2148731, 34.9077017,
 2016-Nov-12 11:00:00, , ,209.7584396, 35.5939745,
 2016-Nov-12 12:00:00, , ,209.2952055, 36.2769094,
 2016-Nov-12 13:00:00, , ,208.8249441, 36.9563923,
 2016-Nov-12 14:00:00, , ,208.3474219, 37.6323087,
 2016-Nov-12 15:00:00, , ,207.8623976, 38.3045436,
 2016-Nov-12 16:00:00, , ,207.3696226, 38.9729818,
 2016-Nov-12 17:00:00, , ,206.8688402, 39.6375078,
 2016-Nov-12 18:00:00, , ,206.3597858, 40.2980053,
 2016-Nov-12 19:00:00, , ,205.8421861, 40.9543578,
 2016-Nov-12 20:00:00, , ,205.3157592, 41.6064481,
 2016-Nov-12 21:00:00, , ,204.7802140, 42.2541587,
 2016-Nov-12 22:00:00, , ,204.2352501, 42.8973712,
 2016-Nov-12 23:00:00, , ,203.6805575, 43.5359669,
 2016-Nov-13 00:00:00, , ,203.1158158, 44.1698263,
 2016-Nov-13 01:00:00, , ,202.5406948, 44.7988289,
 2016-Nov-13 02:00:00, , ,201.9548538, 45.4228528,
 2016-Nov-13 03:00:00, , ,201.3579414, 46.0417751,
 2016-Nov-13 04:00:00, , ,200.7495950, 46.6554718,
 2016-Nov-13 05:00:00, , ,200.1294409, 47.2638172,
